SKYSAT-C7
1 42991U 17068E   18094.46607887  .00000535  00000-0  27002-4 0  9993
2 42991  97.3948 209.8849 0007457  43.6504 316.5321 15.21292215 23479
